NORAD_CAT_ID,OBJECT_NAME,OBJECT_TYPE,EPOCH,MEAN_MOTION,ECCENTRICITY,INCLINATION,RA_OF_ASC_NODE,ARG_OF_PERICENTER,MEAN_ANOMALY,BSTAR,MEAN_MOTION_DOT,MEAN_MOTION_DDOT,TLE_LINE0,TLE_LINE1,TLE_LINE2,SEMIMAJOR_AXIS,PERIOD,APOGEE,PERIGEE,DECAYED
49141.0,STARLINK-3093,PAYLOAD,2024-03-22 21:47:30,14.9832253,0.0002671,70.0001,301.7295,248.8271,111.2603,0.00010442,1.153e-05,0.0,0 STARLINK-3093,1 49141U 21082M   24082.90799039  .00001153  00000-0  10442-3 0  9998,2 49141  70.0001 301.7295 0002671 248.8271 111.2603 14.98322530139817,6950.216,96.107,573.937,570.225,0.0
49141.0,STARLINK-3093,PAYLOAD,2024-03-23 00:59:46,14.98322776,0.0002713,69.9998,301.3914,259.1567,100.9287,0.00010945,1.213e-05,0.0,0 STARLINK-3093,1 49141U 21082M   24083.04151101  .00001213  00000-0  10945-3 0  9991,2 49141  69.9998 301.3914 0002713 259.1567 100.9287 14.98322776139830,6950.215,96.107,573.966,570.195,0.0
49141.0,STARLINK-3093,PAYLOAD,2024-03-23 20:13:23,14.98331495,0.0002751,69.9994,299.3711,259.8229,100.262,1.3816e-05,7.2e-07,0.0,0 STARLINK-3093,1 49141U 21082M   24083.84262778  .00000072  00000-0  13816-4 0  9995,2 49141  69.9994 299.3711 0002751 259.8229 100.2620 14.98331495139956,6950.188,96.107,573.965,570.141,0.0
49141.0,STARLINK-3093,PAYLOAD,2024-03-23 21:49:30,14.98333687,0.0002682,69.9994,299.2026,260.6058,99.4798,2.2481e-05,1.75e-06,0.0,0 STARLINK-3093,1 49141U 21082M   24083.90938619  .00000175  00000-0  22481-4 0  9998,2 49141  69.9994 299.2026 0002682 260.6058  99.4798 14.98333687139968,6950.181,96.107,573.911,570.182,0.0
49141.0,STARLINK-3093,PAYLOAD,2024-03-24 07:26:19,14.98338334,0.0002759,69.9993,298.1903,278.2598,81.8248,-2.3287e-05,-3.71e-06,0.0,0 STARLINK-3093,1 49141U 21082M   24084.30994405 -.00000371  00000-0 -23287-4 0  9993,2 49141  69.9993 298.1903 0002759 278.2598  81.8248 14.98338334140026,6950.167,96.106,573.95,570.115,0.0
49141.0,STARLINK-3093,PAYLOAD,2024-03-24 21:51:31,14.98334561,0.0002931,69.9985,296.6778,262.716,97.3666,0.00022121,2.548e-05,0.0,0 STARLINK-3093,1 49141U 21082M   24084.91078191  .00002548  00000-0  22121-3 0  9996,2 49141  69.9985 296.6778 0002931 262.7160  97.3666 14.98334561140119,6950.179,96.107,574.081,570.007,0.0
49141.0,STARLINK-3093,PAYLOAD,2024-03-25 20:17:24,14.98331334,0.0002934,69.9992,294.316,259.934,100.1488,-3.4559e-05,-5.05e-06,0.0,0 STARLINK-3093,1 49141U 21082M   24085.84542635 -.00000505  00000-0 -34559-4 0  9990,2 49141  69.9992 294.3160 0002934 259.9340 100.1488 14.98331334140253,6950.189,96.107,574.093,570.015,0.0
49141.0,STARLINK-3093,PAYLOAD,2024-03-25 21:53:32,14.98332132,0.0002878,69.9991,294.1493,261.3194,98.7639,-6.4382e-05,-8.61e-06,0.0,0 STARLINK-3093,1 49141U 21082M   24085.91218655 -.00000861  00000-0 -64382-4 0  9992,2 49141  69.9991 294.1493 0002878 261.3194  98.7639 14.98332132140268,6950.186,96.107,574.052,570.051,0.0
49141.0,STARLINK-3093,PAYLOAD,2024-03-26 13:54:54,14.98323648,0.0002945,69.9986,292.4693,271.3487,88.7335,-5.0203e-05,-6.92e-06,0.0,0 STARLINK-3093,1 49141U 21082M   24086.57979324 -.00000692  00000-0 -50203-4 0  9991,2 49141  69.9986 292.4693 0002945 271.3487  88.7335 14.98323648140361,6950.213,96.107,574.124,570.031,0.0
49141.0,STARLINK-3093,PAYLOAD,2024-03-26 21:55:34,14.98324197,0.0002843,69.9987,291.6267,268.4865,91.5968,-5.316e-05,-7.27e-06,0.0,0 STARLINK-3093,1 49141U 21082M   24086.91359378 -.00000727  00000-0 -53160-4 0  9994,2 49141  69.9987 291.6267 0002843 268.4865  91.5968 14.98324197140414,6950.211,96.107,574.052,570.1,0.0
49141.0,STARLINK-3093,PAYLOAD,2024-03-27 13:56:54,14.98327604,0.0003014,69.9987,289.9436,272.0139,88.0675,0.00011183,1.241e-05,0.0,0 STARLINK-3093,1 49141U 21082M   24087.58118791  .00001241  00000-0  11183-3 0  9998,2 49141  69.9987 289.9436 0003014 272.0139  88.0675 14.98327604140511,6950.2,96.107,574.16,569.971,0.0
49141.0,STARLINK-3093,PAYLOAD,2024-03-27 21:57:34,14.98330604,0.000302,69.9987,289.1021,271.9486,88.1327,0.00010662,1.179e-05,0.0,0 STARLINK-3093,1 49141U 21082M   24087.91498679  .00001179  00000-0  10662-3 0  9992,2 49141  69.9987 289.1021 0003020 271.9486  88.1327 14.98330604140567,6950.191,96.107,574.155,569.957,0.0
49141.0,STARLINK-3093,PAYLOAD,2024-03-28 12:22:47,14.98328924,0.0003049,69.9985,287.5872,271.4795,88.6015,0.00012929,1.45e-05,0.0,0 STARLINK-3093,1 49141U 21082M   24088.51582767  .00001450  00000-0  12929-3 0  9991,2 49141  69.9985 287.5872 0003049 271.4795  88.6015 14.98328924140651,6950.196,96.107,574.18,569.942,0.0
49141.0,STARLINK-3093,PAYLOAD,2024-03-28 21:59:35,14.98331386,0.0003051,69.9985,286.5771,271.6115,88.4695,0.00013172,1.479e-05,0.0,0 STARLINK-3093,1 49141U 21082M   24088.91638590  .00001479  00000-0  13172-3 0  9993,2 49141  69.9985 286.5771 0003051 271.6115  88.4695 14.98331386140714,6950.189,96.107,574.174,569.933,0.0
49141.0,STARLINK-3093,PAYLOAD,2024-03-28 23:35:43,14.98332655,0.0003048,69.9985,286.4088,271.6278,88.4532,0.00014373,1.622e-05,0.0,0 STARLINK-3093,1 49141U 21082M   24088.98314476  .00001622  00000-0  14373-3 0  9998,2 49141  69.9985 286.4088 0003048 271.6278  88.4532 14.98332655140721,6950.185,96.107,574.168,569.931,0.0
49141.0,STARLINK-3093,PAYLOAD,2024-03-29 18:49:20,14.98330847,0.0002911,69.999,284.3889,271.4069,88.6756,-2.076e-05,-3.41e-06,0.0,0 STARLINK-3093,1 49141U 21082M   24089.78426971 -.00000341  00000-0 -20760-4 0  9998,2 49141  69.9990 284.3889 0002911 271.4069  88.6756 14.98330847140841,6950.19,96.107,574.078,570.032,0.0
49141.0,STARLINK-3093,PAYLOAD,2024-03-29 22:01:37,14.98328384,0.0002924,69.9989,284.0526,270.9973,89.0851,-4.0427e-05,-5.75e-06,0.0,0 STARLINK-3093,1 49141U 21082M   24089.91779196 -.00000575  00000-0 -40427-4 0  9994,2 49141  69.9989 284.0526 0002924 270.9973  89.0851 14.98328384140862,6950.198,96.107,574.095,570.031,0.0
49141.0,STARLINK-3093,PAYLOAD,2024-03-30 14:02:57,14.98333509,0.0002958,69.9991,282.3686,267.6046,92.4774,8.4888e-07,-8.3e-07,0.0,0 STARLINK-3093,1 49141U 21082M   24090.58538631 -.00000083  00000-0  84888-6 0  9990,2 49141  69.9991 282.3686 0002958 267.6046  92.4774 14.98333509140962,6950.182,96.107,574.103,569.991,0.0
49141.0,STARLINK-3093,PAYLOAD,2024-03-30 20:27:29,14.98334493,0.0002968,69.9993,281.6952,267.57,92.5119,1.3078e-05,6.3e-07,0.0,0 STARLINK-3093,1 49141U 21082M   24090.85242524  .00000063  00000-0  13078-4 0  9991,2 49141  69.9993 281.6952 0002968 267.5700  92.5119 14.98334493141002,6950.179,96.107,574.107,569.981,0.0
49141.0,STARLINK-3093,PAYLOAD,2024-03-30 22:03:37,14.98334492,0.0002968,69.9993,281.5269,267.6047,92.4772,1.3135e-05,6.4e-07,0.0,0 STARLINK-3093,1 49141U 21082M   24090.91918507  .00000064  00000-0  13135-4 0  9994,2 49141  69.9993 281.5269 0002968 267.6047  92.4772 14.98334492141011,6950.179,96.107,574.107,569.981,0.0
49141.0,STARLINK-3093,PAYLOAD,2024-03-31 14:04:58,14.98330485,0.0003069,69.998,279.8433,268.7422,91.3385,5.3657e-05,5.47e-06,0.0,0 STARLINK-3093,1 49141U 21082M   24091.58678523  .00000547  00000-0  53657-4 0  9998,2 49141  69.9980 279.8433 0003069 268.7422  91.3385 14.98330485141119,6950.191,96.107,574.189,569.923,0.0
49141.0,STARLINK-3093,PAYLOAD,2024-03-31 20:29:30,14.98333134,0.0003073,69.998,279.17,269.3255,90.7552,8.2749e-05,8.95e-06,0.0,0 STARLINK-3093,1 49141U 21082M   24091.85382255  .00000895  00000-0  82749-4 0  9992,2 49141  69.9980 279.1700 0003073 269.3255  90.7552 14.98333134141152,6950.183,96.107,574.184,569.912,0.0
49141.0,STARLINK-3093,PAYLOAD,2024-03-31 22:05:38,14.98333236,0.0003074,69.998,279.0017,269.3598,90.7209,8.2364e-05,8.9e-06,0.0,0 STARLINK-3093,1 49141U 21082M   24091.92058239  .00000890  00000-0  82364-4 0  9990,2 49141  69.9980 279.0017 0003074 269.3598  90.7209 14.98333236141166,6950.183,96.107,574.184,569.911,0.0
49141.0,STARLINK-3093,PAYLOAD,2024-04-01 14:06:59,14.98328874,0.0003108,69.998,277.3181,268.7686,91.3117,1.6194e-05,1e-06,0.0,0 STARLINK-3093,1 49141U 21082M   24092.58818586  .00000100  00000-0  16194-4 0  9994,2 49141  69.9980 277.3181 0003108 268.7686  91.3117 14.98328874141266,6950.196,96.107,574.221,569.901,0.0
49141.0,STARLINK-3093,PAYLOAD,2024-04-01 20:31:31,14.98332052,0.0003128,69.998,276.6448,269.3652,90.7149,1.4686e-05,8.2e-07,0.0,0 STARLINK-3093,1 49141U 21082M   24092.85522383  .00000082  00000-0  14686-4 0  9994,2 49141  69.9980 276.6448 0003128 269.3652  90.7149 14.98332052141302,6950.187,96.107,574.226,569.878,0.0
49141.0,STARLINK-3093,PAYLOAD,2024-04-02 14:09:00,14.98328828,0.0003123,69.998,274.793,269.9743,90.1058,2.4202e-05,1.96e-06,0.0,0 STARLINK-3093,1 49141U 21082M   24093.58958466  .00000196  00000-0  24202-4 0  9991,2 49141  69.9980 274.7930 0003123 269.9743  90.1058 14.98328828141410,6950.197,96.107,574.232,569.891,0.0
49141.0,STARLINK-3093,PAYLOAD,2024-04-02 20:33:32,14.98331912,0.0003143,69.998,274.1196,270.2737,89.8062,1.4909e-05,8.5e-07,0.0,0 STARLINK-3093,1 49141U 21082M   24093.85662282  .00000085  00000-0  14909-4 0  9999,2 49141  69.9980 274.1196 0003143 270.2737  89.8062 14.98331912141450,6950.187,96.107,574.236,569.868,0.0
49141.0,STARLINK-3093,PAYLOAD,2024-04-02 22:09:40,14.9833263,0.0003141,69.998,273.9513,270.2574,89.8225,1.2976e-05,6.2e-07,0.0,0 STARLINK-3093,1 49141U 21082M   24093.92338230  .00000062  00000-0  12976-4 0  9997,2 49141  69.9980 273.9513 0003141 270.2574  89.8225 14.98332630141467,6950.185,96.107,574.233,569.867,0.0
49141.0,STARLINK-3093,PAYLOAD,2024-04-03 14:11:00,14.98330416,0.0003168,69.998,272.2679,270.2949,89.7847,6.7379e-05,7.11e-06,0.0,0 STARLINK-3093,1 49141U 21082M   24094.59098129  .00000711  00000-0  67379-4 0  9999,2 49141  69.9980 272.2679 0003168 270.2949  89.7847 14.98330416141567,6950.192,96.107,574.258,569.855,0.0
49141.0,STARLINK-3093,PAYLOAD,2024-04-03 20:35:32,14.98333831,0.0003176,69.998,271.5944,270.7424,89.3371,7.6361e-05,8.18e-06,0.0,0 STARLINK-3093,1 49141U 21082M   24094.85801856  .00000818  00000-0  76361-4 0  9996,2 49141  69.9980 271.5944 0003176 270.7424  89.3371 14.98333831141603,6950.181,96.107,574.253,569.839,0.0
